[{"OBJECT_NAME":"ONEWEB-0610","OBJECT_ID":"2022-166AH","EPOCH":"2026-03-09T13:44:11.022720","MEAN_MOTION":13.2182492,"ECCENTRICITY":9.69e-5,"INCLINATION":87.9162,"RA_OF_ASC_NODE":263.847,"ARG_OF_PERICENTER":85.3496,"MEAN_ANOMALY":274.7749,"EPHEMERIS_TYPE":0,"CLASSIFICATION_TYPE":"U","NORAD_CAT_ID":54673,"ELEMENT_SET_NO":999,"REV_AT_EPOCH":15829,"BSTAR":-0.00029177,"MEAN_MOTION_DOT":-1.07e-6,"MEAN_MOTION_DDOT":0},{"OBJECT_NAME":"CZ-4C DEB","OBJECT_ID":"2009-072H","EPOCH":"2026-03-09T11:45:50.082336","MEAN_MOTION":12.92889271,"ECCENTRICITY":0.01551017,"INCLINATION":100.4859,"RA_OF_ASC_NODE":299.7749,"ARG_OF_PERICENTER":280.5425,"MEAN_ANOMALY":199.6076,"EPHEMERIS_TYPE":0,"CLASSIFICATION_TYPE":"U","NORAD_CAT_ID":38660,"ELEMENT_SET_NO":999,"REV_AT_EPOCH":75678,"BSTAR":0.00078795011,"MEAN_MOTION_DOT":1.83e-6,"MEAN_MOTION_DDOT":0}]
